start=new Date('2023-03-06T00:00:00.000Z').valueOf();
sats=[{"MEAN_MOTION_DOT":"0.00000967","MEAN_ELEMENT_THEORY":"SGP4","SEMIMAJOR_AXIS":"6917.860","DECAY_DATE":null,"TLE_LINE1":"1 52113U 22029AB  23064.89029408  .00000967  00000-0  78866-4 0  9993","ECCENTRICITY":"0.00018350","APOAPSIS":"540.994","EPOCH":"2023-03-05T21:22:01.408512","REF_FRAME":"TEME","OBJECT_ID":"2022-029AB","FILE":"3852256","NORAD_CAT_ID":"52113","CENTER_NAME":"EARTH","PERIAPSIS":"538.455","GP_ID":"227583046","INCLINATION":"53.2180","OBJECT_NAME":"STARLINK-3736","RA_OF_ASC_NODE":"336.3159","MEAN_MOTION":"15.08846696","COUNTRY_CODE":"US","LAUNCH_DATE":"2022-03-19","PERIOD":"95.437","EPHEMERIS_TYPE":"0","MEAN_ANOMALY":"290.8077","RCS_SIZE":"LARGE","MEAN_MOTION_DDOT":"0.0000000000000","CLASSIFICATION_TYPE":"U","SITE":"AFETR","BSTAR":"0.00007886600000","ELEMENT_SET_NO":"999","OBJECT_TYPE":"PAYLOAD","TLE_LINE2":"2 52113  53.2180 336.3159 0001835  69.3111 290.8077 15.08846696 54758","TIME_SYSTEM":"UTC","ARG_OF_PERICENTER":"69.3111","REV_AT_EPOCH":"5475"},{"TLE_LINE2":"2 52114  53.2155 336.2667 0001245  53.1981 306.9125 15.08851076 54756","TIME_SYSTEM":"UTC","OBJECT_TYPE":"PAYLOAD","ARG_OF_PERICENTER":"53.1981","ELEMENT_SET_NO":"999","REV_AT_EPOCH":"5475","BSTAR":"0.00116890000000","MEAN_MOTION_DDOT":"0.0000000000000","SITE":"AFETR","CLASSIFICATION_TYPE":"U","PERIOD":"95.437","EPHEMERIS_TYPE":"0","MEAN_ANOMALY":"306.9125","RCS_SIZE":"LARGE","OBJECT_NAME":"STARLINK-3737","RA_OF_ASC_NODE":"336.2667","LAUNCH_DATE":"2022-03-19","COUNTRY_CODE":"US","MEAN_MOTION":"15.08851076","NORAD_CAT_ID":"52114","CENTER_NAME":"EARTH","PERIAPSIS":"538.850","INCLINATION":"53.2155","GP_ID":"227583761","ECCENTRICITY":"0.00012450","TLE_LINE1":"1 52114U 22029AC  23064.90133710  .00018370  00000-0  11689-2 0  9993","EPOCH":"2023-03-05T21:37:55.525440","REF_FRAME":"TEME","APOAPSIS":"540.573","FILE":"3852256","OBJECT_ID":"2022-029AC","MEAN_MOTION_DOT":"0.00018370","MEAN_ELEMENT_THEORY":"SGP4","SEMIMAJOR_AXIS":"6917.847","DECAY_DATE":null},{"NORAD_CAT_ID":"52115","CENTER_NAME":"EARTH","PERIAPSIS":"537.938","GP_ID":"227548606","INCLINATION":"53.2154","OBJECT_NAME":"STARLINK-3685","RA_OF_ASC_NODE":"340.2175","MEAN_MOTION":"15.08835163","COUNTRY_CODE":"US","LAUNCH_DATE":"2022-03-19","MEAN_MOTION_DOT":"0.00020681","SEMIMAJOR_AXIS":"6917.895","MEAN_ELEMENT_THEORY":"SGP4","DECAY_DATE":null,"ECCENTRICITY":"0.00026340","TLE_LINE1":"1 52115U 22029AD  23064.02181731  .00020681  00000-0  13138-2 0  9992","APOAPSIS":"541.582","EPOCH":"2023-03-05T00:31:25.015584","REF_FRAME":"TEME","OBJECT_ID":"2022-029AD","FILE":"3851939","BSTAR":"0.00131380000000","ELEMENT_SET_NO":"999","ARG_OF_PERICENTER":"77.8470","TLE_LINE2":"2 52115  53.2154 340.2175 0002634  77.8470 282.2817 15.08835163 54623","OBJECT_TYPE":"PAYLOAD","TIME_SYSTEM":"UTC","REV_AT_EPOCH":"5462","EPHEMERIS_TYPE":"0","PERIOD":"95.438","MEAN_ANOMALY":"282.2817","RCS_SIZE":"LARGE","MEAN_MOTION_DDOT":"0.0000000000000","CLASSIFICATION_TYPE":"U","SITE":"AFETR"},{"MEAN_MOTION_DOT":"0.00048747","MEAN_ELEMENT_THEORY":"SGP4","SEMIMAJOR_AXIS":"6917.844","DECAY_DATE":null,"TLE_LINE1":"1 52116U 22029AE  23064.89397983  .00048747  00000-0  30589-2 0  9998","ECCENTRICITY":"0.00014750","APOAPSIS":"540.729","EPOCH":"2023-03-05T21:27:19.857312","REF_FRAME":"TEME","OBJECT_ID":"2022-029AE","FILE":"3852256","NORAD_CAT_ID":"52116","CENTER_NAME":"EARTH","PERIAPSIS":"538.688","GP_ID":"227582301","INCLINATION":"53.2168","OBJECT_NAME":"STARLINK-3735","RA_OF_ASC_NODE":"336.3014","COUNTRY_CODE":"US","MEAN_MOTION":"15.08851961","LAUNCH_DATE":"2022-03-19","EPHEMERIS_TYPE":"0","PERIOD":"95.437","MEAN_ANOMALY":"289.4427","RCS_SIZE":"LARGE","MEAN_MOTION_DDOT":"0.0000000000000","CLASSIFICATION_TYPE":"U","SITE":"AFETR","BSTAR":"0.00305890000000","ELEMENT_SET_NO":"999","TLE_LINE2":"2 52116  53.2168 336.3014 0001475  70.6725 289.4427 15.08851961 54757","OBJECT_TYPE":"PAYLOAD","TIME_SYSTEM":"UTC","ARG_OF_PERICENTER":"70.6725","REV_AT_EPOCH":"5475"},{"NORAD_CAT_ID":"52117","CENTER_NAME":"EARTH","PERIAPSIS":"538.506","INCLINATION":"53.2158","GP_ID":"227583524","OBJECT_NAME":"STARLINK-3738","RA_OF_ASC_NODE":"336.0858","LAUNCH_DATE":"2022-03-19","MEAN_MOTION":"15.08835239","COUNTRY_CODE":"US","MEAN_MOTION_DOT":"0.00053239","MEAN_ELEMENT_THEORY":"SGP4","SEMIMAJOR_AXIS":"6917.895","DECAY_DATE":null,"TLE_LINE1":"1 52117U 22029AF  23064.94182149  .00053239  00000-0  33385-2 0  9990","ECCENTRICITY":"0.00018130","EPOCH":"2023-03-05T22:36:13.376736","REF_FRAME":"TEME","APOAPSIS":"541.014","FILE":"3852256","OBJECT_ID":"2022-029AF","BSTAR":"0.00333850000000","ARG_OF_PERICENTER":"55.1203","TLE_LINE2":"2 52117  53.2158 336.0858 0001813  55.1203 304.9959 15.08835239 54770","OBJECT_TYPE":"PAYLOAD","TIME_SYSTEM":"UTC","ELEMENT_SET_NO":"999","REV_AT_EPOCH":"5477","EPHEMERIS_TYPE":"0","PERIOD":"95.438","MEAN_ANOMALY":"304.9959","RCS_SIZE":"LARGE","MEAN_MOTION_DDOT":"0.0000000000000","SITE":"AFETR","CLASSIFICATION_TYPE":"U"},{"TLE_LINE2":"2 52118  53.2171 336.3316 0002121  85.0207 275.1028 15.08863538 54754","OBJECT_TYPE":"PAYLOAD","TIME_SYSTEM":"UTC","ARG_OF_PERICENTER":"85.0207","ELEMENT_SET_NO":"999","REV_AT_EPOCH":"5475","BSTAR":"0.00087572000000","MEAN_MOTION_DDOT":"0.0000000000000","SITE":"AFETR","CLASSIFICATION_TYPE":"U","PERIOD":"95.436","EPHEMERIS_TYPE":"0","MEAN_ANOMALY":"275.1028","RCS_SIZE":"LARGE","OBJECT_NAME":"STARLINK-3743","RA_OF_ASC_NODE":"336.3316","LAUNCH_DATE":"2022-03-19","MEAN_MOTION":"15.08863538","COUNTRY_CODE":"US","NORAD_CAT_ID":"52118","CENTER_NAME":"EARTH","PERIAPSIS":"538.206","INCLINATION":"53.2171","GP_ID":"227583284","TLE_LINE1":"1 52118U 22029AG  23064.88661958  .00013686  00000-0  87572-3 0  9994","ECCENTRICITY":"0.00021210","EPOCH":"2023-03-05T21:16:43.931712","REF_FRAME":"TEME","APOAPSIS":"541.141","FILE":"3852256","OBJECT_ID":"2022-029AG","MEAN_MOTION_DOT":"0.00013686","SEMIMAJOR_AXIS":"6917.808","MEAN_ELEMENT_THEORY":"SGP4","DECAY_DATE":null},{"EPHEMERIS_TYPE":"0","PERIOD":"95.438","MEAN_ANOMALY":"221.3949","RCS_SIZE":"LARGE","MEAN_MOTION_DDOT":"0.0000000000000","CLASSIFICATION_TYPE":"U","SITE":"AFETR","BSTAR":"0.00024028000000","ELEMENT_SET_NO":"999","TLE_LINE2":"2 52119  53.2157 336.1198 0001757 138.7177 221.3949 15.08838361 54763","TIME_SYSTEM":"UTC","OBJECT_TYPE":"PAYLOAD","ARG_OF_PERICENTER":"138.7177","REV_AT_EPOCH":"5476","MEAN_MOTION_DOT":"0.00003538","MEAN_ELEMENT_THEORY":"SGP4","SEMIMAJOR_AXIS":"6917.885","DECAY_DATE":null,"ECCENTRICITY":"0.00017570","TLE_LINE1":"1 52119U 22029AH  23064.93445253  .00003538  00000-0  24028-3 0  9991","APOAPSIS":"540.966","EPOCH":"2023-03-05T22:25:36.698592","REF_FRAME":"TEME","OBJECT_ID":"2022-029AH","FILE":"3852256","NORAD_CAT_ID":"52119","CENTER_NAME":"EARTH","PERIAPSIS":"538.535","GP_ID":"227582529","INCLINATION":"53.2157","OBJECT_NAME":"STARLINK-3558","RA_OF_ASC_NODE":"336.1198","MEAN_MOTION":"15.08838361","COUNTRY_CODE":"US","LAUNCH_DATE":"2022-03-19"},{"COUNTRY_CODE":"US","MEAN_MOTION":"15.08842802","LAUNCH_DATE":"2022-03-19","RA_OF_ASC_NODE":"339.9335","OBJECT_NAME":"STARLINK-3534","GP_ID":"227549351","INCLINATION":"53.2168","PERIAPSIS":"539.015","CENTER_NAME":"EARTH","NORAD_CAT_ID":"52120","OBJECT_ID":"2022-029AJ","FILE":"3851939","APOAPSIS":"540.458","EPOCH":"2023-03-05T02:01:29.819424","REF_FRAME":"TEME","TLE_LINE1":"1 52120U 22029AJ  23064.08437291  .00022339  00000-0  14171-2 0  9999","ECCENTRICITY":"0.00010430","DECAY_DATE":null,"MEAN_ELEMENT_THEORY":"SGP4","SEMIMAJOR_AXIS":"6917.872","MEAN_MOTION_DOT":"0.00022339","REV_AT_EPOCH":"5464","ELEMENT_SET_NO":"999","TLE_LINE2":"2 52120  53.2168 339.9335 0001043 111.0539 249.0565 15.08842802 54648","TIME_SYSTEM":"UTC","OBJECT_TYPE":"PAYLOAD","ARG_OF_PERICENTER":"111.0539","BSTAR":"0.00141710000000","CLASSIFICATION_TYPE":"U","SITE":"AFETR","MEAN_MOTION_DDOT":"0.0000000000000","RCS_SIZE":"LARGE","MEAN_ANOMALY":"249.0565","EPHEMERIS_TYPE":"0","PERIOD":"95.437"},{"MEAN_MOTION_DOT":"0.00043574","DECAY_DATE":null,"SEMIMAJOR_AXIS":"6917.804","MEAN_ELEMENT_THEORY":"SGP4","ECCENTRICITY":"0.00012030","TLE_LINE1":"1 52121U 22029AK  23064.91697818  .00043574  00000-0  27372-2 0  9996","FILE":"3852256","OBJECT_ID":"2022-029AK","EPOCH":"2023-03-05T22:00:26.914752","REF_FRAME":"TEME","APOAPSIS":"540.502","CENTER_NAME":"EARTH","NORAD_CAT_ID":"52121","INCLINATION":"53.2154","GP_ID":"227583047","PERIAPSIS":"538.837","OBJECT_NAME":"STARLINK-3678","LAUNCH_DATE":"2022-03-19","COUNTRY_CODE":"US","MEAN_MOTION":"15.08864864","RA_OF_ASC_NODE":"326.1996","MEAN_ANOMALY":"209.9360","PERIOD":"95.436","EPHEMERIS_TYPE":"0","RCS_SIZE":"LARGE","MEAN_MOTION_DDOT":"0.0000000000000","SITE":"AFETR","CLASSIFICATION_TYPE":"U","BSTAR":"0.00273720000000","REV_AT_EPOCH":"5489","TIME_SYSTEM":"UTC","TLE_LINE2":"2 52121  53.2154 326.1996 0001203 150.1700 209.9360 15.08864864 54894","OBJECT_TYPE":"PAYLOAD","ARG_OF_PERICENTER":"150.1700","ELEMENT_SET_NO":"999"},{"REV_AT_EPOCH":"5476","TLE_LINE2":"2 52122  53.2157 336.1058 0001399  49.9018 310.2097 15.08865311 54768","OBJECT_TYPE":"PAYLOAD","ARG_OF_PERICENTER":"49.9018","TIME_SYSTEM":"UTC","ELEMENT_SET_NO":"999","BSTAR":"0.00319660000000","SITE":"AFETR","CLASSIFICATION_TYPE":"U","MEAN_MOTION_DDOT":"0.0000000000000","RCS_SIZE":"LARGE","MEAN_ANOMALY":"310.2097","PERIOD":"95.436","EPHEMERIS_TYPE":"0","LAUNCH_DATE":"2022-03-19","MEAN_MOTION":"15.08865311","COUNTRY_CODE":"US","RA_OF_ASC_NODE":"336.1058","OBJECT_NAME":"STARLINK-3726","INCLINATION":"53.2157","GP_ID":"227583762","PERIAPSIS":"538.700","CENTER_NAME":"EARTH","NORAD_CAT_ID":"52122","FILE":"3852256","OBJECT_ID":"2022-029AL","REF_FRAME":"TEME","EPOCH":"2023-03-05T22:30:54.788832","APOAPSIS":"540.636","ECCENTRICITY":"0.00013990","TLE_LINE1":"1 52122U 22029AL  23064.93813413  .00050990  00000-0  31966-2 0  9994","DECAY_DATE":null,"MEAN_ELEMENT_THEORY":"SGP4","SEMIMAJOR_AXIS":"6917.803","MEAN_MOTION_DOT":"0.00050990"}];
